LUCH-5A                 
1 37951U 11074B   26117.10739284 -.00000054  00000+0  00000+0 0  9997
2 37951   8.6271  74.5436 0002752 305.3035  40.8405  1.00273004 52538
NIGCOMSAT 1R            
1 38014U 11077A   26117.20044858  .00000134  00000+0  00000+0 0  9996
2 38014   0.0417  95.7474 0002419 250.3228 343.7991  1.00275079 52446
WGS F4 (USA 233)        
1 38070U 12003A   26116.99883963 -.00000225  00000+0  00000+0 0  9993
2 38070   0.0176 223.4440 0000310  95.0673 344.4596  1.00270630 43637
SES-4                   
1 38087U 12007A   26117.08100193 -.00000178  00000+0  00000+0 0  9990
2 38087   0.0218  37.9837 0002627  18.1025 166.1663  1.00272338 51719
BEIDOU-2 G5             
1 38091U 12008A   26117.07606152  .00000049  00000+0  00000+0 0  9997
2 38091   3.4486  69.9855 0012264 266.1896 325.0169  1.00273210 51854
INTELSAT 22 (IS-22)     
1 38098U 12011A   26117.08274998 -.00000069  00000+0  00000+0 0  9991
2 38098   0.0221 106.9851 0001760 294.0083 275.9693  1.00270693  6673
COSMOS 2479             
1 38101U 12012A   26116.99892786  .00000140  00000+0  00000+0 0  9996
2 38101   8.7351  56.8505 0005850 247.0732 300.0872  1.00363147 51574
SL-12 R/B(2)            
1 38104U 12012D   26117.16611145  .00000121  00000+0  00000+0 0  9996
2 38104   8.7243  57.0555 0012666 302.4238 121.0628  1.00347327 51555
APSTAR-7                
1 38107U 12013A   26117.07594709 -.00000112  00000+0  00000+0 0  9997
2 38107   0.0419  58.7537 0002998 354.0151 266.1344  1.00271343 51291
YAHSAT 1B               
1 38245U 12016A   26117.20044858  .00000116  00000+0  00000+0 0  9996
2 38245   0.0856  86.3207 0002545 318.0221 290.6162  1.00270624 45098
AEHF-2 (USA 235)        
1 38254U 12019A   26116.63334639 -.00000143  00000+0  00000+0 0  9995
2 38254   6.5325  57.8568 0002202 317.9458  50.3181  1.00273042  6471
JCSAT-13                
1 38331U 12023A   26117.01764794 -.00000367  00000+0  00000+0 0  9996
2 38331   0.0240  69.5097 0002393 337.5205 298.3423  1.00273008 51024
VINASAT-2               
1 38332U 12023B   26116.94796766  .00000000  00000+0  00000+0 0  9995
2 38332   0.0129  58.1984 0002830 357.0656 272.7972  1.00268233 46149
NIMIQ 6                 
1 38342U 12026A   26117.20253022 -.00000184  00000+0  00000+0 0  9996
2 38342   0.0655  77.0089 0002569 314.1960 165.7984  1.00271824 49902
ZHONGXING-2A            
1 38352U 12028A   26117.19886314 -.00000302  00000+0  00000+0 0  9995
2 38352   1.3242  84.4939 0001811  29.2422 271.2872  1.00272510 50781
INTELSAT 19 (IS-19)     
1 38356U 12030A   26117.11294791 -.00000067  00000+0  00000+0 0  9994
2 38356   0.0209 261.1108 0003105 134.7004  25.9526  1.00272183 49933
ECHOSTAR 17             
1 38551U 12035A   26117.15183397  .00000000  00000+0  00000+0 0  9995
2 38551   0.0157 230.8322 0002198 171.5958 120.2761  1.00269617 50559
